{
  "norad_id": 43565,
  "name": "GSAT0222 (GALILEO 26)",
  "history": [
    {
      "epoch": "2026-03-27T17:58:54.205536Z",
      "apogee_km": 23232.19225951787,
      "perigee_km": 23211.92382196567,
      "latitude_deg": 2.39467874169651e-05,
      "longitude_deg": -110.90958800628479,
      "height_km": 23219.17903976929,
      "semi_major_axis_km": 29600.195040741768,
      "eccentricity": 0.00034237,
      "inclination_deg": 57.1988,
      "raan_deg": 343.9851,
      "arg_perigee_deg": 288.405,
      "mean_anomaly_deg": 71.5917,
      "mean_motion_rev_day": 1.7047508
    }
  ]
}